{
  "type": "FeatureCollection",
  "features": [
    {
      "type": "Feature",
      "properties": {
        "norad_id": 44334,
        "name": "EUTELSAT 7C",
        "group": "eutelsat",
        "lat": -0.0322031622757992,
        "lon": 57.69696165061744,
        "alt_km": 35798.71354513125,
        "timestamp": "2025-12-18T21:31:50.654197+00:00",
        "meta_object_name": "EUTELSAT 7C",
        "meta_object_id": "2019-034B",
        "meta_epoch": "2025-12-18T04:46:38.871264",
        "meta_mean_motion": 1.00271297,
        "meta_eccentricity": 0.00030257,
        "meta_inclination": 0.0728,
        "meta_ra_of_asc_node": 178.2218,
        "meta_arg_of_pericenter": 71.1814,
        "meta_mean_anomaly": 276.3116,
        "meta_ephemeris_type": 0,
        "meta_classification_type": "U",
        "meta_norad_cat_id": 44334,
        "meta_element_set_no": 999,
        "meta_rev_at_epoch": 502,
        "meta_bstar": 0,
        "meta_mean_motion_dot": 7.3e-07,
        "meta_mean_motion_ddot": 0,
        "tle_line1": "1 44334U 19034B   25352.19906101  .00000073  00000+0  00000+0 0  9997",
        "tle_line2": "2 44334   0.0728 178.2218 0003025  71.1814 276.3116  1.00271297  5020"
      },
      "geometry": {
        "type": "Point",
        "coordinates": [
          57.69696165061744,
          -0.0322031622757992
        ]
      }
    },
    {
      "type": "Feature",
      "properties": {
        "norad_id": 44624,
        "name": "EUTELSAT 5 WEST B",
        "group": "eutelsat",
        "lat": 0.09037433690070831,
        "lon": 45.733982409572974,
        "alt_km": 35795.766350843805,
        "timestamp": "2025-12-18T21:31:50.654208+00:00",
        "meta_object_name": "EUTELSAT 5 WEST B",
        "meta_object_id": "2019-067A",
        "meta_epoch": "2025-12-18T03:51:38.597760",
        "meta_mean_motion": 1.00271226,
        "meta_eccentricity": 0.00030101,
        "meta_inclination": 0.0701,
        "meta_ra_of_asc_node": 330.5197,
        "meta_arg_of_pericenter": 296.7248,
        "meta_mean_anomaly": 232.7035,
        "meta_ephemeris_type": 0,
        "meta_classification_type": "U",
        "meta_norad_cat_id": 44624,
        "meta_element_set_no": 999,
        "meta_rev_at_epoch": 2262,
        "meta_bstar": 0,
        "meta_mean_motion_dot": -1.7e-07,
        "meta_mean_motion_ddot": 0,
        "tle_line1": "1 44624U 19067A   25352.16086340 -.00000017  00000+0  00000+0 0  9995",
        "tle_line2": "2 44624   0.0701 330.5197 0003010 296.7248 232.7035  1.00271226 22625"
      },
      "geometry": {
        "type": "Point",
        "coordinates": [
          45.733982409572974,
          0.09037433690070831
        ]
      }
    },
    {
      "type": "Feature",
      "properties": {
        "norad_id": 45027,
        "name": "EUTELSAT KONNECT",
        "group": "eutelsat",
        "lat": -0.015096948095916319,
        "lon": 57.91576307327142,
        "alt_km": 35789.70754133764,
        "timestamp": "2025-12-18T21:31:50.654220+00:00",
        "meta_object_name": "EUTELSAT KONNECT",
        "meta_object_id": "2020-005B",
        "meta_epoch": "2025-12-18T04:46:38.871264",
        "meta_mean_motion": 1.00271838,
        "meta_eccentricity": 0.00012846,
        "meta_inclination": 0.0722,
        "meta_ra_of_asc_node": 95.7515,
        "meta_arg_of_pericenter": 189.5961,
        "meta_mean_anomaly": 240.5809,
        "meta_ephemeris_type": 0,
        "meta_classification_type": "U",
        "meta_norad_cat_id": 45027,
        "meta_element_set_no": 999,
        "meta_rev_at_epoch": 2252,
        "meta_bstar": 0,
        "meta_mean_motion_dot": 7.5e-07,
        "meta_mean_motion_ddot": 0,
        "tle_line1": "1 45027U 20005B   25352.19906101  .00000075  00000+0  00000+0 0  9999",
        "tle_line2": "2 45027   0.0722  95.7515 0001284 189.5961 240.5809  1.00271838 22526"
      },
      "geometry": {
        "type": "Point",
        "coordinates": [
          57.91576307327142,
          -0.015096948095916319
        ]
      }
    },
    {
      "type": "Feature",
      "properties": {
        "norad_id": 49056,
        "name": "EUTELSAT QUANTUM",
        "group": "eutelsat",
        "lat": 0.038985269106782204,
        "lon": 98.40765158869384,
        "alt_km": 35800.26155675491,
        "timestamp": "2025-12-18T21:31:50.654232+00:00",
        "meta_object_name": "EUTELSAT QUANTUM",
        "meta_object_id": "2021-069B",
        "meta_epoch": "2025-12-18T04:25:38.603712",
        "meta_mean_motion": 1.00271163,
        "meta_eccentricity": 0.00033271,
        "meta_inclination": 0.0148,
        "meta_ra_of_asc_node": 19.0042,
        "meta_arg_of_pericenter": 259.1281,
        "meta_mean_anomaly": 283.0354,
        "meta_ephemeris_type": 0,
        "meta_classification_type": "U",
        "meta_norad_cat_id": 49056,
        "meta_element_set_no": 999,
        "meta_rev_at_epoch": 1611,
        "meta_bstar": 0,
        "meta_mean_motion_dot": 1.51e-06,
        "meta_mean_motion_ddot": 0,
        "tle_line1": "1 49056U 21069B   25352.18447458  .00000151  00000+0  00000+0 0  9995",
        "tle_line2": "2 49056   0.0148  19.0042 0003327 259.1281 283.0354  1.00271163 16113"
      },
      "geometry": {
        "type": "Point",
        "coordinates": [
          98.40765158869384,
          0.038985269106782204
        ]
      }
    },
    {
      "type": "Feature",
      "properties": {
        "norad_id": 53765,
        "name": "EUTELSAT KONNECT VHTS",
        "group": "eutelsat",
        "lat": -0.020578922307914912,
        "lon": 53.43303814797458,
        "alt_km": 35795.995591746956,
        "timestamp": "2025-12-18T21:31:50.654244+00:00",
        "meta_object_name": "EUTELSAT KONNECT VHTS",
        "meta_object_id": "2022-110A",
        "meta_epoch": "2025-12-16T21:55:49.974240",
        "meta_mean_motion": 1.00270385,
        "meta_eccentricity": 0.00023075,
        "meta_inclination": 0.0652,
        "meta_ra_of_asc_node": 101.283,
        "meta_arg_of_pericenter": 141.3704,
        "meta_mean_anomaly": 174.8367,
        "meta_ephemeris_type": 0,
        "meta_classification_type": "U",
        "meta_norad_cat_id": 53765,
        "meta_element_set_no": 999,
        "meta_rev_at_epoch": 499,
        "meta_bstar": 0,
        "meta_mean_motion_dot": 4.1e-07,
        "meta_mean_motion_ddot": 0,
        "tle_line1": "1 53765U 22110A   25350.91377285  .00000041  00000+0  00000+0 0  9992",
        "tle_line2": "2 53765   0.0652 101.2830 0002307 141.3704 174.8367  1.00270385  4992"
      },
      "geometry": {
        "type": "Point",
        "coordinates": [
          53.43303814797458,
          -0.020578922307914912
        ]
      }
    },
    {
      "type": "Feature",
      "properties": {
        "norad_id": 54048,
        "name": "EUTELSAT HOTBIRD 13F",
        "group": "eutelsat",
        "lat": 0.05988137150607006,
        "lon": 63.71661779449686,
        "alt_km": 35781.26533193718,
        "timestamp": "2025-12-18T21:31:50.654256+00:00",
        "meta_object_name": "EUTELSAT HOTBIRD 13F",
        "meta_object_id": "2022-134A",
        "meta_epoch": "2025-12-18T04:46:38.871264",
        "meta_mean_motion": 1.00271514,
        "meta_eccentricity": 0.00022167,
        "meta_inclination": 0.0523,
        "meta_ra_of_asc_node": 292.8161,
        "meta_arg_of_pericenter": 71.9682,
        "meta_mean_anomaly": 166.9353,
        "meta_ephemeris_type": 0,
        "meta_classification_type": "U",
        "meta_norad_cat_id": 54048,
        "meta_element_set_no": 999,
        "meta_rev_at_epoch": 1156,
        "meta_bstar": 0,
        "meta_mean_motion_dot": 1.12e-06,
        "meta_mean_motion_ddot": 0,
        "tle_line1": "1 54048U 22134A   25352.19906101  .00000112  00000+0  00000+0 0  9999",
        "tle_line2": "2 54048   0.0523 292.8161 0002216  71.9682 166.9353  1.00271514 11563"
      },
      "geometry": {
        "type": "Point",
        "coordinates": [
          63.71661779449686,
          0.05988137150607006
        ]
      }
    },
    {
      "type": "Feature",
      "properties": {
        "norad_id": 54225,
        "name": "EUTELSAT HOTBIRD 13G",
        "group": "eutelsat",
        "lat": 0.020630683365340748,
        "lon": 63.67164978559575,
        "alt_km": 35788.90220399343,
        "timestamp": "2025-12-18T21:31:50.654268+00:00",
        "meta_object_name": "EUTELSAT HOTBIRD 13G",
        "meta_object_id": "2022-146A",
        "meta_epoch": "2025-12-18T04:46:38.871264",
        "meta_mean_motion": 1.00271394,
        "meta_eccentricity": 0.00019311,
        "meta_inclination": 0.0522,
        "meta_ra_of_asc_node": 233.4415,
        "meta_arg_of_pericenter": 300.2849,
        "meta_mean_anomaly": 357.9907,
        "meta_ephemeris_type": 0,
        "meta_classification_type": "U",
        "meta_norad_cat_id": 54225,
        "meta_element_set_no": 999,
        "meta_rev_at_epoch": 565,
        "meta_bstar": 0,
        "meta_mean_motion_dot": 1.12e-06,
        "meta_mean_motion_ddot": 0,
        "tle_line1": "1 54225U 22146A   25352.19906101  .00000112  00000+0  00000+0 0  9999",
        "tle_line2": "2 54225   0.0522 233.4415 0001931 300.2849 357.9907  1.00271394  5654"
      },
      "geometry": {
        "type": "Point",
        "coordinates": [
          63.67164978559575,
          0.020630683365340748
        ]
      }
    }
  ]
}